STARLINK-36884          
1 68026U 26040M   26080.50001157  .00067049  00000+0  44785-3 0  9995
2 68026  97.2850  29.5436 0001342  84.6907 337.0120 15.75139275  4328
STARLINK-36940          
1 68027U 26040N   26080.50001157 -.00278142  00000+0 -19165-2 0  9999
2 68027  97.2855  29.5724 0001288  83.3059  28.4073 15.75293781  4429
STARLINK-36253          
1 68028U 26040P   26080.50001157 -.01970102  00000+0 -24829-1 0  9998
2 68028  97.2857  29.2825 0001920  96.2451  72.4969 15.62852174  4429
STARLINK-36944          
1 68029U 26040Q   26080.50001157 -.00164284  00000+0 -11188-2 0  9999
2 68029  97.2856  29.5440 0001291  94.0698 333.6375 15.75252096  4328
STARLINK-36942          
1 68030U 26040R   26080.50001157 -.00223617  00000+0 -15332-2 0  9992
2 68030  97.2853  29.5495 0001396  98.2757 333.4327 15.75260415  4324
STARLINK-36913          
1 68031U 26040S   26080.50001157 -.00250950  00000+0 -17241-2 0  9994
2 68031  97.2849  29.5514 0001467  88.7901 346.9163 15.75287418  4325
STARLINK-36935          
1 68032U 26040T   26080.50001157 -.00325780  00000+0 -22558-2 0  9996
2 68032  97.2864  29.5638 0001414 115.3265 348.3840 15.75308876  4423
STARLINK-36947          
1 68033U 26040U   26080.50001157 -.00212103  00000+0 -14504-2 0  9993
2 68033  97.2848  29.5535 0001747 116.9496 322.7529 15.75288324  4328
STARLINK-36939          
1 68034U 26040V   26080.50001157 -.00068020  00000+0 -46185-3 0  9992
2 68034  97.2848  29.5623 0002616 111.2242 344.5407 15.75031805  4327
STARLINK-36943          
1 68035U 26040W   26080.50001157 -.00274439  00000+0 -18904-2 0  9993
2 68035  97.2857  29.5675 0001437  89.6024  12.1205 15.75291016  4372
STARLINK-36906          
1 68036U 26040X   26080.50001157 -.00225904  00000+0 -15470-2 0  9992
2 68036  97.2851  29.5608 0001613  73.0869  18.6283 15.75292536  4323
STARLINK-36388          
1 68037U 26040Y   26080.50001157 -.00192490  00000+0 -13137-2 0  9994
2 68037  97.2850  29.5647 0001273  49.5478  50.1693 15.75281574  4272
STARLINK-36895          
1 68038U 26040Z   26080.50001157 -.00218091  00000+0 -14926-2 0  9998
2 68038  97.2852  29.5560 0001598  93.6304 354.0880 15.75285969  4329
STARLINK-36373          
1 68039U 26040AA  26080.50001157 -.00261730  00000+0 -18004-2 0  9998
2 68039  97.2853  29.5546 0001336  91.8131 351.8990 15.75288060  4279
STARLINK-36711          
1 68040U 26041A   26080.50726095  .00392483  00000+0  24267-2 0  9992
2 68040  53.1594   3.1973 0001172  85.9187 274.1967 15.75435510  3082
STARLINK-36825          
1 68041U 26041B   26080.48178764  .00301515  00000+0  14693-2 0  9992
2 68041  53.1594   3.0265 0001748  69.1216 290.9994 15.81007373  3087
